ONEWEB-0300             
1 49089U 21075Q   25192.62877458  .00000249  00000+0  65744-3 0  9994
2 49089  87.8856  58.3723 0001802  92.0517 268.0818 13.12443134190534
ONEWEB-0301             
1 49090U 21075R   25192.38384833  .00001280  00000+0  35216-2 0  9995
2 49090  87.8857  58.4275 0001920  95.4450 264.6898 13.12440515189868
ONEWEB-0302             
1 49091U 21075S   25192.37087076  .00000159  00000+0  40593-3 0  9993
2 49091  87.8858  58.4314 0001892  70.2152 289.9181 13.12443978189841
ONEWEB-0304             
1 49092U 21075T   25192.59461142  .00000041  00000+0  72427-4 0  9990
2 49092  87.9053  73.6650 0001696  77.2230 282.9091 13.17647343188724
ONEWEB-0305             
1 49093U 21075U   25192.36005619  .00000105  00000+0  23724-3 0  9995
2 49093  87.9053  73.6886 0001408  73.6874 286.4412 13.17649677188729
ONEWEB-0308             
1 49094U 21075V   25192.36437602 -.00000080  00000+0 -25717-3 0  9995
2 49094  87.8856  58.4273 0001801  82.6242 277.5091 13.12444558189852
ONEWEB-0309             
1 49095U 21075W   25192.36343324  .00000098  00000+0  21796-3 0  9993
2 49095  87.9052  73.7049 0002018  66.8295 293.3049 13.17649430188697
ONEWEB-0310             
1 49096U 21075X   25192.37897847  .00000390  00000+0  10487-2 0  9998
2 49096  87.8866  58.4685 0001810  77.6183 282.5148 13.12444514190482
